[{"OBJECT_NAME":"STARLINK-5279","OBJECT_ID":"2022-141J","EPOCH":"2026-03-09T06:23:18.508416","MEAN_MOTION":15.08836644,"ECCENTRICITY":0.0001278,"INCLINATION":53.2184,"RA_OF_ASC_NODE":15.9954,"ARG_OF_PERICENTER":94.946,"MEAN_ANOMALY":265.1678,"EPHEMERIS_TYPE":0,"CLASSIFICATION_TYPE":"U","NORAD_CAT_ID":54165,"ELEMENT_SET_NO":999,"REV_AT_EPOCH":18565,"BSTAR":-1.0618904e-5,"MEAN_MOTION_DOT":-4.57e-6,"MEAN_MOTION_DDOT":0},{"OBJECT_NAME":"YAM-8","OBJECT_ID":"2025-052AW","EPOCH":"2026-03-09T17:32:32.161056","MEAN_MOTION":15.10898939,"ECCENTRICITY":0.00023693,"INCLINATION":97.7023,"RA_OF_ASC_NODE":329.5345,"ARG_OF_PERICENTER":152.6796,"MEAN_ANOMALY":207.4558,"EPHEMERIS_TYPE":0,"CLASSIFICATION_TYPE":"U","NORAD_CAT_ID":63254,"ELEMENT_SET_NO":999,"REV_AT_EPOCH":5424,"BSTAR":0.00047267461,"MEAN_MOTION_DOT":7.81e-5,"MEAN_MOTION_DDOT":0}]
