STARLINK-5279           
1 54165U 22141J   26068.26618644 -.00000457  00000+0 -10619-4 0  9998
2 54165  53.2184  15.9954 0001278  94.9460 265.1678 15.08836644185654
YAM-8                   
1 63254U 25052AW  26068.73092778  .00007810  00000+0  47267-3 0  9993
2 63254  97.7023 329.5345 0002369 152.6796 207.4558 15.10898938 54245
